ONEWEB-0535             
1 54147U 22138AL  24150.91917128  .00000027  00000+0  34872-4 0  9993
2 54147  87.9139  93.8714 0001928  73.1640 286.9704 13.19728629 78147
ONEWEB-0527             
1 54642U 22166A   24150.76098386  .00000078  00000+0  15852-3 0  9995
2 54642  87.9308  32.9771 0001963  79.7848 280.3507 13.21824611 72664
ONEWEB-0528             
1 54643U 22166B   24150.69159183  .00000052  00000+0  95437-4 0  9991
2 54643  87.9310  32.9770 0002006  86.0702 274.0661 13.21824023 72664
ONEWEB-0539             
1 54644U 22166C   24150.72786629 -.00000042  00000+0 -13411-3 0  9999
2 54644  87.9312  32.9721 0001685  85.0632 275.0694 13.21825058 72662
ONEWEB-0540             
1 54645U 22166D   24150.72234383 -.00000003  00000+0 -39591-4 0  9990
2 54645  87.9306  32.9926 0001715  89.8276 270.3055 13.21824160 72654
ONEWEB-0542             
1 54646U 22166E   24150.73732795 -.00000021  00000+0 -83220-4 0  9990
2 54646  87.9312  32.9698 0001360  83.5237 276.6052 13.21824524 72663
